O3B FM7                 
1 40080U 14038B   22225.42068661 -.00000027  00000+0  00000+0 0  9992
2 40080   0.0587 358.5688 0001161 182.7542 178.6730  5.00115418147644
O3B FM6                 
1 40081U 14038C   22226.44651386 -.00000027  00000+0  00000+0 0  9998
2 40081   0.0543   0.0082 0002692 143.8933 216.1132  5.00115395147644
O3B FM8                 
1 40082U 14038D   22227.69980268 -.00000027  00000+0  00000+0 0  9991
2 40082   0.0538 356.5978 0002675 145.4822 217.9356  5.00115641148011
O3B FM10                
1 40348U 14083A   22227.12615276 -.00000027  00000+0  00000+0 0  9998
2 40348   0.0494   8.4948 0002627 135.2873 216.2324  5.00115162139753
O3B FM11                
1 40349U 14083B   22226.93973406 -.00000027  00000+0  00000+0 0  9999
2 40349   0.0540   9.7183 0002302 148.6632 201.6249  5.00115362139769
O3B FM12                
1 40350U 14083C   22226.96693348 -.00000027  00000+0  00000+0 0  9998
2 40350   0.0536   8.7934 0002707 139.2075 212.0121  5.00115222139776
O3B FM9                 
1 40351U 14083D   22227.39365148 -.00000027  00000+0  00000+0 0  9991
2 40351   0.0551  10.2171 0002584 134.9970 214.7995  5.00115585139932
DIAMOND RED             
1 42783U 17036U   22226.67427604  .00006768  00000+0  24784-3 0  9995
2 42783  97.1952 265.4862 0012075 119.3560 240.8888 15.28267659285837
DIAMOND GREEN           
1 42785U 17036W   22227.06715411  .00007125  00000+0  26108-3 0  9997
2 42785  97.1955 265.9291 0011923 119.2967 240.9467 15.28231850285966
DIAMOND BLUE            
1 42786U 17036X   22227.52451987  .00007199  00000+0  26365-3 0  9990
2 42786  97.1954 266.3631 0011979 118.3999 241.8450 15.28242829285954
LEO VANTAGE 1           
1 43113U 18004C   22227.39721330  .00001203  00000+0  10270-3 0  9996
2 43113  99.2457 313.7097 0401217  14.3838 346.8389 14.54031149232800
O3B FM15                
1 43231U 18024A   22227.05981450 -.00000027  00000+0  00000+0 0  9993
2 43231   0.0459   8.0094 0002890 138.4739 213.5316  5.00115957 80886
O3B FM16                
1 43232U 18024B   22225.91385207 -.00000027  00000+0  00000+0 0  9995
2 43232   0.0417   8.5775 0002864 137.2275 214.2097  5.00115834 80748
O3B FM14                
1 43233U 18024C   22226.55312002 -.00000027  00000+0  00000+0 0  9990
2 43233   0.0403   7.8303 0002680 139.9265 212.2560  5.00115261 80788
O3B FM13                
1 43234U 18024D   22226.80650651 -.00000027  00000+0  00000+0 0  9994
2 43234   0.0484  34.6114 0003558 120.7867 204.6154  5.00114991 80915
O3B FM20                
1 44112U 19020A   22226.77973240 -.00000027  00000+0  00000+0 0  9995
2 44112   0.0493   7.6482 0002932 145.8806 206.4827  5.00115421 61415
O3B FM19                
1 44113U 19020B   22226.60661406 -.00000027  00000+0  00000+0 0  9996
2 44113   0.0580  21.4024 0001755 129.1979 209.4060  5.00114988 61270
O3B FM17                
1 44114U 19020C   22226.88704952 -.00000027  00000+0  00000+0 0  9991
2 44114   0.0416 344.1347 0003000 163.2930 212.5874  5.00115512 61365
O3B FM18                
1 44115U 19020D   22227.03347137 -.00000027  00000+0  00000+0 0  9998
2 44115   0.0495   8.1120 0002873 135.9063 215.9977  5.00115739 61507
SALSAT                  
1 46495U 20068K   22227.48457380  .00001259  00000+0  93633-4 0  9992
2 46495  97.7311 168.8183 0018290  78.7368 281.5912 15.04712881103067
ISS (ZARYA)             
1 25544U 98067A   22227.91275196  .00005492  00000+0  10346-3 0  9991
2 25544  51.6420  40.7075 0005562 126.2063  23.2458 15.50190500354441
AEROCUBE 12A            
1 43556U 18046C   22227.61111147  .00015007  00000+0  36479-3 0  9993
2 43556  51.6351 255.0619 0005666 259.0918 100.9429 15.41176956228430
AEROCUBE 12B            
1 43557U 18046D   22227.30531798  .00010278  00000+0  27320-3 0  9998
2 43557  51.6364 261.9440 0005972 250.7988 109.2350 15.38822182228269
LEMUR-2-VU              
1 43558U 18046E   22227.73896970  .00027463  00000+0  48468-3 0  9992
2 43558  51.6359 233.1380 0004937 272.6919  87.3504 15.50156359228734
LEMUR-2-ALEXANDER       
1 43559U 18046F   22227.46683986  .00028100  00000+0  47316-3 0  9994
2 43559  51.6364 232.1030 0004607 291.9023  68.1477 15.51472527228506
LEMUR-2-YUASA           
1 43560U 18046G   22227.24716013  .00023418  00000+0  40893-3 0  9990
2 43560  51.6369 235.8596 0005042 295.6201  64.4267 15.50551399228659
LEMUR-2-TOMHENDERSON    
1 43561U 18046H   22227.24736120  .00020535  00000+0  39165-3 0  9999
2 43561  51.6374 239.5660 0005246 288.8591  71.1828 15.48115332228165
ISS DEB (SEDA-AP)       
1 43870U 98067PU  22227.53375131  .00141948  19282-4  32595-3 0  9995
2 43870  51.6255 279.9620 0004038  15.5927 344.5205 15.97019274208331
STPSAT-4                
1 45043U 98067QY  22227.39641418  .00137750  00000+0  52453-3 0  9991
2 45043  51.6340 350.9303 0003374 359.9688   0.1316 15.86627131144825
SORTIE                  
1 45264U 98067RH  22227.36549568  .00184697  24008-4  52909-3 0  9993
2 45264  51.6376 344.0081 0004818   4.5685 355.5366 15.92800095141581
ICS-EF (ISS DEB)        
1 45265U 98067RJ  22227.51498824  .00025336  00000+0  25687-3 0  9997
2 45265  51.6378  13.5862 0003905  56.5288 303.6081 15.65066853140887
RED-EYE 2 (MERLOT)      
1 45800U 98067RM  22227.37607437  .00058250  00000+0  37378-3 0  9999
2 45800  51.6389   2.2051 0000837 355.9786   4.1207 15.75672759122881
RED-EYE 3 (CABERNET)    
1 45809U 98067RN  22227.44319727  .00065809  00000+0  42152-3 0  9992
2 45809  51.6399   1.9086 0001283  10.0544 350.0481 15.75664780121872
ISS DEB                 
1 47853U 98067RZ  22226.78148440  .00007924  00000+0  12456-3 0  9999
2 47853  51.6419  39.5463 0001939 209.0844 151.0039 15.54628287 80986
MMSATS-1                
1 47976U 98067SJ  22227.96999139  .00023490  00000+0  27430-3 0  9999
2 47976  51.6405  25.5068 0001254 216.1199 225.5223 15.61494621 79559
CSS (TIANHE)            
1 48274U 21035A   22227.88786622  .00015419  00000+0  17780-3 0  9993
2 48274  41.4717 215.3297 0002816  83.3813 356.0230 15.61602116 74103
ISS DEB                 
1 48833U 98067SK  22227.41365262  .00055663  00000+0  45570-3 0  9998
2 48833  51.6362  22.6654 0001874 257.1892 102.8896 15.69962685 68409
RAMSAT                  
1 48850U 98067SL  22227.41919079  .00099794  00000+0  52003-3 0  9990
2 48850  51.6364  14.4233 0004313 297.2269  62.8293 15.80110878 66626
BD-28                   
1 48867U 98067SN  22227.55326162  .00222718  29236-4  72510-3 0  9994
2 48867  51.6249   8.4077 0006511 312.0771  47.9680 15.90248425 65467
ISS (NAUKA)             
1 49044U 21066A   22227.51643844  .00005665  00000+0  10648-3 0  9999
2 49044  51.6425  42.6707 0005592 124.0882 332.2075 15.50186633354381
FREGAT DEB              
1 49271U 11037PF  22227.01017531  .00059006  00000+0  24229+0 0  9995
2 49271  51.6620  74.9640 0916823 154.9529 209.8831 11.92052503 54153
BINAR-1                 
1 49272U 98067SR  22227.47253536  .00152094  00000+0  71338-3 0  9999
2 49272  51.6311  17.7215 0003462 265.9431  94.1176 15.82213325 48979
CUAVA-1                 
1 49275U 98067SU  22227.78517383  .00482775  11218-3  91069-3 0  9991
2 49275  51.6282   9.6412 0009045 299.3610 202.1076 16.00157235 49059
CAPSAT                  
1 49276U 98067SV  22227.49108311  .00220668  00000+0  84962-3 0  9995
2 49276  51.6350  17.1283 0004983 279.3477  80.6963 15.86156026 48043
PR-CUNAR 2              
1 49277U 98067SW  22227.51126616  .00469479  10384-3  98808-3 0  9996
2 49277  51.6180  12.5308 0009003 302.0387  57.9747 15.98233337 48078
1998-067TD              
1 51441U 98067TD  22227.84675885  .00067909  00000+0  59921-3 0  9990
2 51441  51.6372  28.5699 0003967 101.3136 258.8307 15.68051642 31476
PATCOOL                 
1 51442U 98067TE  22227.30234535  .00061316  00000+0  53453-3 0  9995
2 51442  51.6350  30.9128 0004070 107.7475 252.3966 15.68389203 31353
LIGHT-1                 
1 51509U 98067TG  22227.45534666  .00044459  00000+0  48079-3 0  9990
2 51509  51.6400  33.4835 0006355  93.5706 266.6015 15.63118806 30113
PROGRESS-MS 19          
1 51660U 22014A   22227.51643844  .00005665  00000+0  10648-3 0  9990
2 51660  51.6425  42.6707 0005592 124.0882 332.2075 15.50186633354388
SOYUZ-MS 21             
1 52086U 22028A   22227.51643844  .00005665  00000+0  10648-3 0  9998
2 52086  51.6425  42.6707 0005592 124.0882 332.2075 15.50186633354381
IHI-SAT                 
1 52147U 98067TJ  22227.48643444  .00068146  00000+0  79956-3 0  9994
2 52147  51.6365  36.6646 0003190 156.0097 204.1046 15.60846885 22528
KITSUNE                 
1 52148U 98067TK  22227.87437661  .00027857  00000+0  38074-3 0  9990
2 52148  51.6425  36.7059 0003916 127.1171  28.7970 15.57218832 22496
CREW DRAGON 4           
1 52318U 22042A   22227.51643844  .00005665  00000+0  10648-3 0  9992
2 52318  51.6425  42.6707 0005592 124.0882 332.2075 15.50186633354389
TIANZHOU-4              
1 52509U 22050A   22226.30709491  .00021377  00000+0  24524-3 0  9996
2 52509  41.4702 224.9596 0003691  82.6885  98.5207 15.61555144 73855
PROGRESS-MS 20          
1 52795U 22059A   22227.51643844  .00005665  00000+0  10648-3 0  9999
2 52795  51.6425  42.6707 0005592 124.0882 332.2075 15.50186633354388
SHENZHOU 14             
1 52797U 22060A   22226.30709491  .00021377  00000+0  24524-3 0  9996
2 52797  41.4702 224.9596 0003691  82.6885  98.5207 15.61555144 73854
ISS DEB                 
1 52952U 98067TP  22227.56829984  .00051665  00000+0  78256-3 0  9992
2 52952  51.6421  41.7302 0003980 145.9648 214.1599 15.54124847  6781
DRAGON CRS-25           
1 53113U 22081A   22227.51643844  .00005665  00000+0  10648-3 0  9999
2 53113  51.6425  42.6707 0005592 124.0882 332.2075 15.50186633354383
CSS (WENTIAN)           
1 53239U 22085A   22226.30709491  .00021377  00000+0  24524-3 0  9995
2 53239  41.4702 224.9596 0003691  82.6885  98.5207 15.61555144 73856
